GALAXY 25 (G-25)        
1 24812U 97026A   22268.46414862 -.00000001  00000+0  00000+0 0  9996
2 24812   3.9349  82.6268 0002650 121.2282  33.6284  1.00273004 92734
INTELSAT 5 (IS-5)       
1 24916U 97046A   22268.55265830 -.00000056  00000+0  00000+0 0  9992
2 24916   7.4382  60.3409 0004756 143.5155 165.6035  1.00271824 91973
GALAXY 11 (G-11)        
1 26038U 99071A   22268.50049253 -.00000159  00000+0  00000+0 0  9997
2 26038   3.2587  86.3567 0001013 197.0398 167.9964  1.00271725 83449
INTELSAT 9 (IS-9)       
1 26451U 00043A   22268.36918743 -.00000282  00000+0  00000+0 0  9997
2 26451   7.4221  60.5166 0002658 137.9633 248.6348  1.00272577 30507
INTELSAT 1R (IS-1R)     
1 26608U 00072A   22268.54046324 -.00000134  00000+0  00000+0 0  9996
2 26608   4.6917  79.7034 0000169 219.1452  57.1644  1.00271087 27676
INTELSAT 10 (IS-10)     
1 26766U 01019A   22268.56455431  .00000039  00000+0  00000+0 0  9991
2 26766   5.8101  72.4864 0002604 123.1377 189.7969  1.00272982 31971
INTELSAT 901 (IS-901)   
1 26824U 01024A   22268.44548774 -.00000202  00000+0  00000+0 0  9995
2 26824   0.0232 181.2548 0000957   8.2387 307.6411  1.00269989  9330
INTELSAT 902 (IS-902)   
1 26900U 01039A   22268.44095332 -.00000280  00000+0  00000+0 0  9999
2 26900   2.6520  87.8732 0002501 108.3725 276.6425  1.00270433 77054
INTELSAT 904 (IS-904)   
1 27380U 02007A   22268.37328584 -.00000210  00000+0  00000+0 0  9991
2 27380   3.4813  84.8487 0002796  97.8886 286.3357  1.00272816 38125
DIRECTV 5 (TEMPO 1)     
1 27426U 02023A   22268.50935646 -.00000054  00000+0  00000+0 0  9994
2 27426   1.3756  91.9617 0003151  90.6705 254.9392  1.00272186 74478
INTELSAT 905 (IS-905)   
1 27438U 02027A   22268.44609816 -.00000181  00000+0  00000+0 0  9992
2 27438   3.3034  85.5769 0002503  94.1828 320.6047  1.00272270 37723
GALAXY 3C (G-3C)        
1 27445U 02030A   22268.47758028 -.00000151  00000+0  00000+0 0  9994
2 27445   0.2273  88.3240 0000560 204.8505 148.2161  1.00272603 32849
INTELSAT 906 (IS-906)   
1 27513U 02041A   22268.46371262  .00000016  00000+0  00000+0 0  9991
2 27513   2.3211  89.3164 0002969 108.8524  37.1768  1.00272694 73388
GALAXY 12 (G-12)        
1 27715U 03013B   22268.55438365  .00000061  00000+0  00000+0 0  9993
2 27715   3.5145  84.4912 0001802 111.1654 239.2870  1.00272262 71360
GALAXY 23 (G-23)        
1 27854U 03034A   22268.56454524  .00000014  00000+0  00000+0 0  9994
2 27854   0.0128 119.0679 0003340  95.9154 231.6431  1.00272968 70096
GALAXY 13 (HORIZONS-1)  
1 27954U 03044A   22268.55607792  .00000049  00000+0  00000+0 0  9990
2 27954   0.0184 205.7158 0000414 165.7592  66.0691  1.00272655 32926
INTELSAT 10-02          
1 28358U 04022A   22268.20535536 -.00000011  00000+0  00000+0 0  9994
2 28358   0.0132 215.0544 0000863 342.2830 239.6250  1.00270958 66892
XM-3 (RHYTHM)           
1 28626U 05008A   22268.50049253 -.00000204  00000+0  00000+0 0  9990
2 28626   0.0179 157.6675 0001500  19.9485 281.7648  1.00267960 28986
DIRECTV 8               
1 28659U 05019A   22268.56623941  .00000002  00000+0  00000+0 0  9991
2 28659   0.0248 253.2986 0002552 297.8226 258.0618  1.00273832 63422
GALAXY 28 (G-28)        
1 28702U 05022A   22268.50049253 -.00000185  00000+0  00000+0 0  9999
2 28702   0.0138 119.7588 0001803  79.8400 255.9016  1.00273166 38333
GALAXY 14 (G-14)        
1 28790U 05030A   22268.52965883  .00000157  00000+0  00000+0 0  9991
2 28790   1.5088  91.1091 0001834  85.7629  51.0366  1.00271776 62666
GALAXY 15 (G-15)        
1 28884U 05041A   22268.55099590  .00000072  00000+0  00000+0 0  9999
2 28884   0.0669  87.6706 0002488 123.2611 220.0545  1.00287298 61962
SPACEWAY 2              
1 28903U 05046B   22268.54093642  .00000106  00000+0  00000+0 0  9995
2 28903   2.1279  86.9649 0000292 115.1172 218.1122  1.00271976 37693
GALAXY 16 (G-16)        
1 29236U 06023A   22268.51978542 -.00000126  00000+0  00000+0 0  9992
2 29236   0.0216 239.0378 0002683 314.1288 259.2796  1.00271563 59325
DIRECTV 9S              
1 29494U 06043A   22268.51801432 -.00000112  00000+0  00000+0 0  9998
2 29494   0.0132 169.4153 0003121  23.2914 256.9044  1.00271622 37734
XM-4 (BLUES)            
1 29520U 06049A   22268.50049253 -.00000205  00000+0  00000+0 0  9991
2 29520   0.0637 326.4828 0001889 352.0749 140.8380  1.00271924 37836
GALAXY 17 (G-17)        
1 31307U 07016B   22268.50452240 -.00000173  00000+0  00000+0 0  9990
2 31307   0.0142 106.3583 0002761  91.3518 257.2431  1.00271901 56154
DIRECTV 10              
1 31862U 07032A   22268.37323760 -.00000102  00000+0  00000+0 0  9995
2 31862   0.0122 254.2729 0000123 313.3682 188.0849  1.00269427 31946
SPACEWAY 3              
1 32018U 07036A   22268.47758028 -.00000150  00000+0  00000+0 0  9996
2 32018   0.4773  90.4458 0000312  23.1355 327.6909  1.00271825 32908
INTELSAT 11 (IS-11)     
1 32253U 07044B   22268.44234854 -.00000268  00000+0  00000+0 0  9999
2 32253   0.0401  95.6390 0001744 109.6175 275.2612  1.00272487 54857
HORIZONS-2              
1 32388U 07063B   22268.50844640 -.00000236  00000+0  00000+0 0  9991
2 32388   0.0211 108.1692 0003319  16.9172 350.6018  1.00010752 54232
DIRECTV 11              
1 32729U 08013A   22268.51978574 -.00000125  00000+0  00000+0 0  9998
2 32729   0.0142 349.2419 0000136 115.8727 347.1583  1.00271109 31944
GALAXY 18 (G-18)        
1 32951U 08024A   22268.56116343  .00000026  00000+0  00000+0 0  9999
2 32951   0.0255 186.4388 0002936 357.8884 259.0309  1.00271194 32205
INTELSAT 25 (IS-25)     
1 33153U 08034A   22268.37293705 -.00000223  00000+0  00000+0 0  9992
2 33153   0.0091 171.5868 0003016  16.0525 279.3059  1.00271537 52055
GALAXY 19 (G-19)        
1 33376U 08045A   22268.52312197 -.00000138  00000+0  00000+0 0  9990
2 33376   0.0260 193.7209 0002960 356.7155 265.2051  1.00268954 51194
FM-5                    
1 35493U 09034A   22268.50049253 -.00000200  00000+0  00000+0 0  9999
2 35493   0.0157 249.9034 0000544 179.8667  28.5848  1.00273176 32992
INTELSAT 14 (IS-14)     
1 36097U 09064A   22268.44199973 -.00000273  00000+0  00000+0 0  9991
2 36097   0.0179 141.9025 0002507  58.5139 277.9726  1.00271819 46965
INTELSAT 15 (IS-15)     
1 36106U 09067A   22268.46789823 -.00000184  00000+0  00000+0 0  9997
2 36106   0.0154 201.7059 0002296 352.3824  63.7673  1.00269097 27586
DIRECTV 12              
1 36131U 09075A   22268.51645161 -.00000103  00000+0  00000+0 0  9997
2 36131   0.0215 276.9224 0000080 320.1153 210.5075  1.00271707 32919
INTELSAT 16 (IS-16)     
1 36397U 10006A   22268.50748720 -.00000243  00000+0  00000+0 0  9996
2 36397   0.0178 201.0584 0002197 350.9980 278.7471  1.00268824 46017
XM-5                    
1 37185U 10053A   22268.57121198 -.00000022  00000+0  00000+0 0  9990
2 37185   0.0118 237.5842 0000874 150.8274  66.4211  1.00271635 43836
INTELSAT 17 (IS-17)     
1 37238U 10065B   22267.93624148 -.00000002  00000+0  00000+0 0  9992
2 37238   0.0196 188.9532 0002703 358.2166 219.6255  1.00271786 39587
INTELSAT NEW DAWN       
1 37392U 11016A   22268.52965883  .00000156  00000+0  00000+0 0  9999
2 37392   0.0224 140.2504 0000857 354.2458  93.3308  1.00264425 39643
INTELSAT 18 (IS-18)     
1 37834U 11056A   22268.56841396  .00000053  00000+0  00000+0 0  9996
2 37834   0.0089 119.1008 0001931  55.1674 214.7113  1.00269871 40205
INTELSAT 22 (IS-22)     
1 38098U 12011A   22268.46528222 -.00000059  00000+0  00000+0 0  9997
2 38098   0.0030 181.9523 0002815 359.0964  62.8216  1.00272283 38173
INTELSAT 19 (IS-19)     
1 38356U 12030A   22268.48403029 -.00000056  00000+0  00000+0 0  9991
2 38356   0.0253 167.8667 0003012  21.4448 155.2197  1.00269508 36793
INTELSAT 20 (IS-20)     
1 38740U 12043A   22268.38938306 -.00000025  00000+0  00000+0 0  9998
2 38740   0.0145 164.5997 0002053  15.4288  32.8375  1.00272867 37105
INTELSAT 21 (IS-21)     
1 38749U 12045A   22268.43938372 -.00000284  00000+0  00000+0 0  9995
2 38749   0.0167 133.8461 0002129  52.0183 278.5693  1.00271981 36891
INTELSAT 23 (IS-23)     
1 38867U 12057A   22268.46130900 -.00000284  00000+0  00000+0 0  9993
2 38867   0.0386 260.7852 0001053 135.6384  80.9419  1.00271430 36301
FM-6                    
1 39360U 13058A   22268.41433505 -.00000016  00000+0  00000+0 0  9999
2 39360   0.0449 269.1145 0000492 179.6556 308.4581  1.00272035 32411
INTELSAT 30 (IS-30)     
1 40271U 14062A   22268.50373758 -.00000150  00000+0  00000+0 0  9990
2 40271   0.0184 248.9704 0002393 186.8957  14.7493  1.00269345 29126
DIRECTV 14              
1 40333U 14078B   22268.58994444 -.00000125  00000+0  00000+0 0  9997
2 40333   0.0160 114.9876 0000164 225.4980 137.0828  1.00272250 28423
DIRECTV 15              
1 40663U 15026A   22268.37323716 -.00000102  00000+0  00000+0 0  9997
2 40663   0.0123 131.5076 0000626 283.2773 340.9094  1.00274106 26813
SKY MEXICO-1            
1 40664U 15026B   22268.50696399 -.00000233  00000+0  00000+0 0  9998
2 40664   0.0193 155.6184 0002331  49.0868 263.3410  1.00269618 26818
INTELSAT 34 (IS-34)     
1 40874U 15039A   22268.45860559 -.00000285  00000+0  00000+0 0  9997
2 40874   0.0466 294.7247 0000425 111.0857  68.0730  1.00271992 25989
INTELSAT 31 (IS-31)     
1 41581U 16035A   22268.50373758 -.00000150  00000+0  00000+0 0  9997
2 41581   0.0227 234.8346 0001073 347.7880 227.9837  1.00270489 23048
INTELSAT 36 (IS-36)     
1 41747U 16053A   22268.46458462 -.00000024  00000+0  00000+0 0  9992
2 41747   0.0163 206.6031 0002471 164.0824 229.3286  1.00268775 22307
INTELSAT 33E (IS-33E)   
1 41748U 16053B   22268.53451931  .00000049  00000+0  00000+0 0  9991
2 41748   0.0224 268.7721 0001761 271.9193  76.0629  1.00271954 22603
INTELSAT 32E (IS-32E)   
1 41945U 17007B   22268.44234854 -.00000268  00000+0  00000+0 0  9997
2 41945   0.0255 179.4730 0000339 285.8228  15.0118  1.00269943 20594
INTELSAT 35E (IS-35E)   
1 42818U 17041A   22268.38174220 -.00000237  00000+0  00000+0 0  9994
2 42818   0.0025 164.0521 0001685  31.7450 271.3244  1.00272383 19178
INTELSAT 37E (IS-37E)   
1 42950U 17059A   22266.95118694 -.00000143  00000+0  00000+0 0  9990
2 42950   0.0204 158.6517 0002854  35.4377 133.1120  1.00271265 18407
AZERSPACE 2 (IS-38)     
1 43632U 18074A   22267.75526750  .00000135  00000+0  00000+0 0  9991
2 43632   0.0202 150.5187 0000889  55.2525 114.8112  1.00271968 14793
HORIZONS-3E             
1 43633U 18074B   22268.12578380 -.00000031  00000+0  00000+0 0  9996
2 43633   0.0073  24.5516 0000886 278.7339 274.9121  1.00269695 14699
AT&T T-16               
1 44333U 19034A   22268.51801355 -.00000114  00000+0  00000+0 0  9997
2 44333   0.0179 148.5208 0000725 329.0745 332.3676  1.00270777 11988
INTELSAT 39 (IS-39)     
1 44476U 19049B   22268.46327663  .00000034  00000+0  00000+0 0  9990
2 44476   0.0184 219.5330 0000626 153.6131 219.8570  1.00271328 11498
GALAXY 30 (G-30)        
1 46114U 20056C   22268.55947081  .00000038  00000+0  00000+0 0  9997
2 46114   0.0249 185.6910 0002408   4.1453 250.9309  1.00271450  7649
